CCSDS_OMM_VERS = 2.0
CREATION_DATE  = 
ORIGINATOR     = 

OBJECT_NAME    = ISS (ZARYA)
OBJECT_ID      = 1998-067A
CENTER_NAME    = EARTH
REF_FRAME      = TEME
TIME_SYSTEM    = UTC
MEAN_ELEMENT_THEORY = SGP/SGP4

EPOCH          = 2026-03-06T20:49:01.409088
MEAN_MOTION    = 15.48482048
ECCENTRICITY   = .0008109
INCLINATION    = 51.6318
RA_OF_ASC_NODE = 86.3097
ARG_OF_PERICENTER = 164.5613
MEAN_ANOMALY   = 195.5624

EPHEMERIS_TYPE = 0
CLASSIFICATION_TYPE = U
NORAD_CAT_ID   = 25544
ELEMENT_SET_NO = 999
REV_AT_EPOCH   = 55589
BSTAR          = .16627E-3
MEAN_MOTION_DOT = .8564E-4
MEAN_MOTION_DDOT = 0

CCSDS_OMM_VERS = 2.0
CREATION_DATE  = 
ORIGINATOR     = 

OBJECT_NAME    = POISK
OBJECT_ID      = 2009-060A
CENTER_NAME    = EARTH
REF_FRAME      = TEME
TIME_SYSTEM    = UTC
MEAN_ELEMENT_THEORY = SGP/SGP4

EPOCH          = 2026-03-06T20:49:01.409088
MEAN_MOTION    = 15.48482048
ECCENTRICITY   = .0008109
INCLINATION    = 51.6318
RA_OF_ASC_NODE = 86.3097
ARG_OF_PERICENTER = 164.5613
MEAN_ANOMALY   = 195.5624

EPHEMERIS_TYPE = 0
CLASSIFICATION_TYPE = U
NORAD_CAT_ID   = 36086
ELEMENT_SET_NO = 999
REV_AT_EPOCH   = 55561
BSTAR          = .16627E-3
MEAN_MOTION_DOT = .8564E-4
MEAN_MOTION_DDOT = 0

CCSDS_OMM_VERS = 2.0
CREATION_DATE  = 
ORIGINATOR     = 

OBJECT_NAME    = CSS (TIANHE)
OBJECT_ID      = 2021-035A
CENTER_NAME    = EARTH
REF_FRAME      = TEME
TIME_SYSTEM    = UTC
MEAN_ELEMENT_THEORY = SGP/SGP4

EPOCH          = 2026-03-07T02:12:09.879264
MEAN_MOTION    = 15.60509219
ECCENTRICITY   = .0006989
INCLINATION    = 41.4664
RA_OF_ASC_NODE = 223.9664
ARG_OF_PERICENTER = 257.1897
MEAN_ANOMALY   = 102.8161

EPHEMERIS_TYPE = 0
CLASSIFICATION_TYPE = U
NORAD_CAT_ID   = 48274
ELEMENT_SET_NO = 999
REV_AT_EPOCH   = 27720
BSTAR          = .30186E-3
MEAN_MOTION_DOT = .25371E-3
MEAN_MOTION_DDOT = 0

CCSDS_OMM_VERS = 2.0
CREATION_DATE  = 
ORIGINATOR     = 

OBJECT_NAME    = ISS (NAUKA)
OBJECT_ID      = 2021-066A
CENTER_NAME    = EARTH
REF_FRAME      = TEME
TIME_SYSTEM    = UTC
MEAN_ELEMENT_THEORY = SGP/SGP4

EPOCH          = 2026-03-06T20:49:01.409088
MEAN_MOTION    = 15.48482048
ECCENTRICITY   = .0008109
INCLINATION    = 51.6318
RA_OF_ASC_NODE = 86.3097
ARG_OF_PERICENTER = 164.5613
MEAN_ANOMALY   = 195.5624

EPHEMERIS_TYPE = 0
CLASSIFICATION_TYPE = U
NORAD_CAT_ID   = 49044
ELEMENT_SET_NO = 999
REV_AT_EPOCH   = 55565
BSTAR          = .16627E-3
MEAN_MOTION_DOT = .8564E-4
MEAN_MOTION_DDOT = 0

CCSDS_OMM_VERS = 2.0
CREATION_DATE  = 
ORIGINATOR     = 

OBJECT_NAME    = FREGAT DEB
OBJECT_ID      = 2011-037PF
CENTER_NAME    = EARTH
REF_FRAME      = TEME
TIME_SYSTEM    = UTC
MEAN_ELEMENT_THEORY = SGP/SGP4

EPOCH          = 2026-03-05T23:25:04.037088
MEAN_MOTION    = 12.39967329
ECCENTRICITY   = .09571042
INCLINATION    = 51.6493
RA_OF_ASC_NODE = 311.8987
ARG_OF_PERICENTER = 50.8853
MEAN_ANOMALY   = 317.3235

EPHEMERIS_TYPE = 0
CLASSIFICATION_TYPE = U
NORAD_CAT_ID   = 49271
ELEMENT_SET_NO = 999
REV_AT_EPOCH   = 21223
BSTAR          = .41642496E-1
MEAN_MOTION_DOT = .28561E-3
MEAN_MOTION_DDOT = 0

CCSDS_OMM_VERS = 2.0
CREATION_DATE  = 
ORIGINATOR     = 

OBJECT_NAME    = CSS (WENTIAN)
OBJECT_ID      = 2022-085A
CENTER_NAME    = EARTH
REF_FRAME      = TEME
TIME_SYSTEM    = UTC
MEAN_ELEMENT_THEORY = SGP/SGP4

EPOCH          = 2026-03-07T02:12:09.879264
MEAN_MOTION    = 15.60509219
ECCENTRICITY   = .0006989
INCLINATION    = 41.4664
RA_OF_ASC_NODE = 223.9664
ARG_OF_PERICENTER = 257.1897
MEAN_ANOMALY   = 102.8161

EPHEMERIS_TYPE = 0
CLASSIFICATION_TYPE = U
NORAD_CAT_ID   = 53239
ELEMENT_SET_NO = 999
REV_AT_EPOCH   = 27688
BSTAR          = .30186E-3
MEAN_MOTION_DOT = .25371E-3
MEAN_MOTION_DDOT = 0

CCSDS_OMM_VERS = 2.0
CREATION_DATE  = 
ORIGINATOR     = 

OBJECT_NAME    = CSS (MENGTIAN)
OBJECT_ID      = 2022-143A
CENTER_NAME    = EARTH
REF_FRAME      = TEME
TIME_SYSTEM    = UTC
MEAN_ELEMENT_THEORY = SGP/SGP4

EPOCH          = 2026-03-07T02:12:09.879264
MEAN_MOTION    = 15.60509219
ECCENTRICITY   = .0006989
INCLINATION    = 41.4664
RA_OF_ASC_NODE = 223.9664
ARG_OF_PERICENTER = 257.1897
MEAN_ANOMALY   = 102.8161

EPHEMERIS_TYPE = 0
CLASSIFICATION_TYPE = U
NORAD_CAT_ID   = 54216
ELEMENT_SET_NO = 999
REV_AT_EPOCH   = 27685
BSTAR          = .30186E-3
MEAN_MOTION_DOT = .25371E-3
MEAN_MOTION_DDOT = 0

CCSDS_OMM_VERS = 2.0
CREATION_DATE  = 
ORIGINATOR     = 

OBJECT_NAME    = PROGRESS-MS 31
OBJECT_ID      = 2025-146A
CENTER_NAME    = EARTH
REF_FRAME      = TEME
TIME_SYSTEM    = UTC
MEAN_ELEMENT_THEORY = SGP/SGP4

EPOCH          = 2026-03-06T20:49:01.409088
MEAN_MOTION    = 15.48482048
ECCENTRICITY   = .0008109
INCLINATION    = 51.6318
RA_OF_ASC_NODE = 86.3097
ARG_OF_PERICENTER = 164.5613
MEAN_ANOMALY   = 195.5624

EPHEMERIS_TYPE = 0
CLASSIFICATION_TYPE = U
NORAD_CAT_ID   = 64751
ELEMENT_SET_NO = 999
REV_AT_EPOCH   = 55569
BSTAR          = .16627E-3
MEAN_MOTION_DOT = .8564E-4
MEAN_MOTION_DDOT = 0

CCSDS_OMM_VERS = 2.0
CREATION_DATE  = 
ORIGINATOR     = 

OBJECT_NAME    = TIANZHOU-9
OBJECT_ID      = 2025-149A
CENTER_NAME    = EARTH
REF_FRAME      = TEME
TIME_SYSTEM    = UTC
MEAN_ELEMENT_THEORY = SGP/SGP4

EPOCH          = 2026-03-07T02:12:09.879264
MEAN_MOTION    = 15.60509219
ECCENTRICITY   = .0006989
INCLINATION    = 41.4664
RA_OF_ASC_NODE = 223.9664
ARG_OF_PERICENTER = 257.1897
MEAN_ANOMALY   = 102.8161

EPHEMERIS_TYPE = 0
CLASSIFICATION_TYPE = U
NORAD_CAT_ID   = 64786
ELEMENT_SET_NO = 999
REV_AT_EPOCH   = 27686
BSTAR          = .30186E-3
MEAN_MOTION_DOT = .25371E-3
MEAN_MOTION_DDOT = 0

CCSDS_OMM_VERS = 2.0
CREATION_DATE  = 
ORIGINATOR     = 

OBJECT_NAME    = PROGRESS-MS 32
OBJECT_ID      = 2025-204A
CENTER_NAME    = EARTH
REF_FRAME      = TEME
TIME_SYSTEM    = UTC
MEAN_ELEMENT_THEORY = SGP/SGP4

EPOCH          = 2026-03-06T20:49:01.409088
MEAN_MOTION    = 15.48482048
ECCENTRICITY   = .0008109
INCLINATION    = 51.6318
RA_OF_ASC_NODE = 86.3097
ARG_OF_PERICENTER = 164.5613
MEAN_ANOMALY   = 195.5624

EPHEMERIS_TYPE = 0
CLASSIFICATION_TYPE = U
NORAD_CAT_ID   = 65586
ELEMENT_SET_NO = 999
REV_AT_EPOCH   = 55581
BSTAR          = .16627E-3
MEAN_MOTION_DOT = .8564E-4
MEAN_MOTION_DDOT = 0

CCSDS_OMM_VERS = 2.0
CREATION_DATE  = 
ORIGINATOR     = 

OBJECT_NAME    = CYGNUS NG-23
OBJECT_ID      = 2025-208A
CENTER_NAME    = EARTH
REF_FRAME      = TEME
TIME_SYSTEM    = UTC
MEAN_ELEMENT_THEORY = SGP/SGP4

EPOCH          = 2026-03-06T20:49:01.409088
MEAN_MOTION    = 15.48482048
ECCENTRICITY   = .0008109
INCLINATION    = 51.6318
RA_OF_ASC_NODE = 86.3097
ARG_OF_PERICENTER = 164.5613
MEAN_ANOMALY   = 195.5624

EPHEMERIS_TYPE = 0
CLASSIFICATION_TYPE = U
NORAD_CAT_ID   = 65616
ELEMENT_SET_NO = 999
REV_AT_EPOCH   = 55585
BSTAR          = .16627E-3
MEAN_MOTION_DOT = .8564E-4
MEAN_MOTION_DDOT = 0

CCSDS_OMM_VERS = 2.0
CREATION_DATE  = 
ORIGINATOR     = 

OBJECT_NAME    = ISS OBJECT XK
OBJECT_ID      = 1998-067XK
CENTER_NAME    = EARTH
REF_FRAME      = TEME
TIME_SYSTEM    = UTC
MEAN_ELEMENT_THEORY = SGP/SGP4

EPOCH          = 2026-03-07T03:47:52.976256
MEAN_MOTION    = 16.15260171
ECCENTRICITY   = .0003835
INCLINATION    = 51.6136
RA_OF_ASC_NODE = 59.5555
ARG_OF_PERICENTER = 103.1838
MEAN_ANOMALY   = 256.9606

EPHEMERIS_TYPE = 0
CLASSIFICATION_TYPE = U
NORAD_CAT_ID   = 65731
ELEMENT_SET_NO = 999
REV_AT_EPOCH   = 2649
BSTAR          = .14563E-2
MEAN_MOTION_DOT = .1908354E-1
MEAN_MOTION_DDOT = .35408E-2

