ISS (ZARYA)             
1 25544U 98067A   26065.86737742  .00008564  00000+0  16627-3 0  9990
2 25544  51.6318  86.3097 0008109 164.5613 195.5624 15.48482048555891
POISK                   
1 36086U 09060A   26065.86737742  .00008564  00000+0  16627-3 0  9998
2 36086  51.6318  86.3097 0008109 164.5613 195.5624 15.48482048555614
CSS (TIANHE)            
1 48274U 21035A   26066.09178101  .00025371  00000+0  30186-3 0  9991
2 48274  41.4664 223.9664 0006989 257.1897 102.8161 15.60509219277200
ISS (NAUKA)             
1 49044U 21066A   26065.86737742  .00008564  00000+0  16627-3 0  9996
2 49044  51.6318  86.3097 0008109 164.5613 195.5624 15.48482048555656
FREGAT DEB              
1 49271U 11037PF  26064.97574117  .00028561  00000+0  41642-1 0  9993
2 49271  51.6493 311.8987 0957104  50.8853 317.3235 12.39967329212230
CSS (WENTIAN)           
1 53239U 22085A   26066.09178101  .00025371  00000+0  30186-3 0  9994
2 53239  41.4664 223.9664 0006989 257.1897 102.8161 15.60509219276880
CSS (MENGTIAN)          
1 54216U 22143A   26066.09178101  .00025371  00000+0  30186-3 0  9995
2 54216  41.4664 223.9664 0006989 257.1897 102.8161 15.60509219276853
PROGRESS-MS 31          
1 64751U 25146A   26065.86737742  .00008564  00000+0  16627-3 0  9991
2 64751  51.6318  86.3097 0008109 164.5613 195.5624 15.48482048555692
TIANZHOU-9              
1 64786U 25149A   26066.09178101  .00025371  00000+0  30186-3 0  9997
2 64786  41.4664 223.9664 0006989 257.1897 102.8161 15.60509219276867
PROGRESS-MS 32          
1 65586U 25204A   26065.86737742  .00008564  00000+0  16627-3 0  9993
2 65586  51.6318  86.3097 0008109 164.5613 195.5624 15.48482048555813
CYGNUS NG-23            
1 65616U 25208A   26065.86737742  .00008564  00000+0  16627-3 0  9991
2 65616  51.6318  86.3097 0008109 164.5613 195.5624 15.48482048555851
ISS OBJECT XK           
1 65731U 98067XK  26066.15825204  .01908354  35408-2  14563-2 0  9992
2 65731  51.6136  59.5555 0003835 103.1838 256.9606 16.15260171 26498
